NORAD_CAT_ID,OBJECT_NAME,OBJECT_TYPE,EPOCH,MEAN_MOTION,ECCENTRICITY,INCLINATION,RA_OF_ASC_NODE,ARG_OF_PERICENTER,MEAN_ANOMALY,BSTAR,MEAN_MOTION_DOT,MEAN_MOTION_DDOT,TLE_LINE0,TLE_LINE1,TLE_LINE2,SEMIMAJOR_AXIS,PERIOD,APOGEE,PERIGEE,DECAYED
53910.0,STARLINK-5056,PAYLOAD,2024-04-03 10:18:30,15.0883576,0.0001373,53.2175,240.2176,87.374,272.741,0.00011677,1.571e-05,0.0,0 STARLINK-5056,1 53910U 22119AA  24094.42951718  .00001571  00000-0  11677-3 0  9998,2 53910  53.2175 240.2176 0001373  87.3740 272.7410 15.08835760 85355,6917.893,95.438,540.708,538.809,0.0
53910.0,STARLINK-5056,PAYLOAD,2024-04-03 19:50:48,15.08841864,0.0001274,53.2161,238.4354,88.9665,271.1473,0.00012545,1.709e-05,0.0,0 STARLINK-5056,1 53910U 22119AA  24094.82695430  .00001709  00000-0  12545-3 0  9996,2 53910  53.2161 238.4354 0001274  88.9665 271.1473 15.08841864 85411,6917.875,95.437,540.621,538.858,0.0
53910.0,STARLINK-5056,PAYLOAD,2024-04-04 02:12:21,15.08839969,0.0001182,53.2153,237.2439,80.6174,279.4952,0.00010216,1.338e-05,0.0,0 STARLINK-5056,1 53910U 22119AA  24095.09191501  .00001338  00000-0  10216-3 0  9997,2 53910  53.2153 237.2439 0001182  80.6174 279.4952 15.08839969 85039,6917.88,95.438,540.563,538.928,0.0
53910.0,STARLINK-5056,PAYLOAD,2024-04-04 14:55:26,15.08836718,0.0001243,53.2173,234.8647,83.0059,277.1074,0.00013138,1.803e-05,0.0,0 STARLINK-5056,1 53910U 22119AA  24095.62183977  .00001803  00000-0  13138-3 0  9997,2 53910  53.2173 234.8647 0001243  83.0059 277.1074 15.08836718 85536,6917.89,95.438,540.615,538.896,0.0
53910.0,STARLINK-5056,PAYLOAD,2024-04-05 02:03:08,15.08835065,0.0001101,53.2158,232.7831,80.6533,279.4584,-1.7027e-05,-5.59e-06,0.0,0 STARLINK-5056,1 53910U 22119AA  24096.08551914 -.00000559  00000-0 -17027-4 0  9999,2 53910  53.2158 232.7831 0001101  80.6533 279.4584 15.08835065 85180,6917.895,95.438,540.522,538.999,0.0
53910.0,STARLINK-5056,PAYLOAD,2024-04-05 08:24:42,15.08830752,0.000135,53.2175,231.5967,92.5316,267.5831,6.4511e-05,7.39e-06,0.0,0 STARLINK-5056,1 53910U 22119AA  24096.35048846  .00000739  00000-0  64511-4 0  9992,2 53910  53.2175 231.5967 0001350  92.5316 267.5831 15.08830752 85229,6917.909,95.438,540.708,538.84,0.0
53910.0,STARLINK-5056,PAYLOAD,2024-04-05 14:46:14,15.08826401,0.0001399,53.2172,230.4065,87.5402,272.5751,-0.000114,-2.101e-05,0.0,0 STARLINK-5056,1 53910U 22119AA  24096.61544863 -.00002101  00000-0 -11400-3 0  9996,2 53910  53.2172 230.4065 0001399  87.5402 272.5751 15.08826401 85689,6917.922,95.438,540.755,538.819,0.0
53910.0,STARLINK-5056,PAYLOAD,2024-04-05 16:21:38,15.088295,0.0001346,53.2179,230.1093,88.0775,272.0371,-8.9862e-06,-4.31e-06,0.0,0 STARLINK-5056,1 53910U 22119AA  24096.68169287 -.00000431  00000-0 -89862-5 0  9999,2 53910  53.2179 230.1093 0001346  88.0775 272.0371 15.08829500 85692,6917.912,95.438,540.709,538.846,0.0
53910.0,STARLINK-5056,PAYLOAD,2024-04-06 01:53:56,15.08844854,0.0001282,53.2181,228.3234,85.9438,274.1701,3.716e-05,3.04e-06,0.0,0 STARLINK-5056,1 53910U 22119AA  24097.07912202  .00000304  00000-0  37160-4 0  9996,2 53910  53.2181 228.3234 0001282  85.9438 274.1701 15.08844854 85332,6917.866,95.437,540.617,538.844,0.0
53910.0,STARLINK-5056,PAYLOAD,2024-04-06 14:37:00,15.08849082,7.41e-05,53.2171,225.945,90.5051,269.6026,0.00026481,3.93e-05,0.0,0 STARLINK-5056,1 53910U 22119AA  24097.60903717  .00003930  00000-0  26481-3 0  9997,2 53910  53.2171 225.9450 0000741  90.5051 269.6026 15.08849082 85838,6917.853,95.437,540.23,539.205,0.0
53910.0,STARLINK-5056,PAYLOAD,2024-04-06 17:47:46,15.08864131,0.0001525,53.2172,225.3515,85.5257,274.5909,0.00027051,4.023e-05,0.0,0 STARLINK-5056,1 53910U 22119AA  24097.74150960  .00004023  00000-0  27051-3 0  9994,2 53910  53.2172 225.3515 0001525  85.5257 274.5909 15.08864131 85431,6917.807,95.436,540.727,538.617,0.0
53910.0,STARLINK-5056,PAYLOAD,2024-04-07 08:06:15,15.08844338,0.0001926,53.2182,222.6741,90.9803,269.141,0.00026921,3.999e-05,0.0,0 STARLINK-5056,1 53910U 22119AA  24098.33768096  .00003999  00000-0  26921-3 0  9991,2 53910  53.2182 222.6741 0001926  90.9803 269.1410 15.08844338 85529,6917.867,95.437,541.065,538.4,0.0
53910.0,STARLINK-5056,PAYLOAD,2024-04-07 14:27:48,15.08841322,0.0001574,53.2172,221.4864,82.3116,277.8055,4.9345e-05,4.97e-06,0.0,0 STARLINK-5056,1 53910U 22119AA  24098.60264048  .00000497  00000-0  49345-4 0  9995,2 53910  53.2172 221.4864 0001574  82.3116 277.8055 15.08841322 85983,6917.876,95.437,540.83,538.652,0.0
53910.0,STARLINK-5056,PAYLOAD,2024-04-08 01:35:30,15.08832139,0.0001485,53.2149,219.403,91.5828,268.5335,-6.733e-05,-1.359e-05,0.0,0 STARLINK-5056,1 53910U 22119AA  24099.06632551 -.00001359  00000-0 -67330-4 0  9998,2 53910  53.2149 219.4030 0001485  91.5828 268.5335 15.08832139 85638,6917.904,95.438,540.797,538.742,0.0
53910.0,STARLINK-5056,PAYLOAD,2024-04-08 07:57:02,15.08851019,0.0001305,53.2158,218.212,93.0902,267.0239,-6.2585e-05,-1.284e-05,0.0,0 STARLINK-5056,1 53910U 22119AA  24099.33127863 -.00001284  00000-0 -62585-4 0  9997,2 53910  53.2158 218.2120 0001305  93.0902 267.0239 15.08851019 85675,6917.847,95.437,540.614,538.809,0.0
53910.0,STARLINK-5056,PAYLOAD,2024-04-08 14:18:34,15.08851121,0.0001036,53.2159,217.0234,92.1347,267.9764,5.6337e-06,-1.98e-06,0.0,0 STARLINK-5056,1 53910U 22119AA  24099.59623469 -.00000198  00000-0  56337-5 0  9999,2 53910  53.2159 217.0234 0001036  92.1347 267.9764 15.08851121 86131,6917.846,95.437,540.428,538.995,0.0
53910.0,STARLINK-5056,PAYLOAD,2024-04-09 01:26:15,15.08865443,0.0001226,53.2158,214.9415,100.8711,259.2419,-0.00026214,-4.46e-05,0.0,0 STARLINK-5056,1 53910U 22119AA  24100.05990715 -.00004460  00000-0 -26214-3 0  9990,2 53910  53.2158 214.9415 0001226 100.8711 259.2419 15.08865443 85783,6917.803,95.436,540.516,538.819,0.0
53910.0,STARLINK-5056,PAYLOAD,2024-04-09 17:20:08,15.08839102,0.0001003,53.2166,211.9705,78.901,281.2095,8.0916e-05,1e-05,0.0,0 STARLINK-5056,1 53910U 22119AA  24100.72231887  .00001000  00000-0  80916-4 0  9997,2 53910  53.2166 211.9705 0001003  78.9010 281.2095 15.08839102 85880,6917.883,95.438,540.442,539.054,0.0
53910.0,STARLINK-5056,PAYLOAD,2024-04-10 14:00:09,15.08843026,0.0001271,53.2149,208.1019,92.4728,267.6409,4.864e-05,4.86e-06,0.0,0 STARLINK-5056,1 53910U 22119AA  24101.58343773  .00000486  00000-0  48640-4 0  9995,2 53910  53.2149 208.1019 0001271  92.4728 267.6409 15.08843026 86430,6917.871,95.437,540.615,538.857,0.0
53910.0,STARLINK-5056,PAYLOAD,2024-04-10 23:32:28,15.08839154,0.0001336,53.2162,206.3182,91.2153,268.8992,4.9201e-05,4.95e-06,0.0,0 STARLINK-5056,1 53910U 22119AA  24101.98088031  .00000495  00000-0  49201-4 0  9996,2 53910  53.2162 206.3182 0001336  91.2153 268.8992 15.08839154 86074,6917.883,95.438,540.672,538.824,0.0
53910.0,STARLINK-5056,PAYLOAD,2024-04-11 13:50:56,15.08840532,0.0001247,53.2186,203.647,87.5469,272.5666,6.8432e-05,8.01e-06,0.0,0 STARLINK-5056,1 53910U 22119AA  24102.57703969  .00000801  00000-0  68432-4 0  9994,2 53910  53.2186 203.6470 0001247  87.5469 272.5666 15.08840532 86587,6917.879,95.438,540.606,538.881,0.0
53910.0,STARLINK-5056,PAYLOAD,2024-04-11 23:23:16,15.08804625,0.0001145,53.2179,201.8636,100.7507,259.3614,0.00043673,6.663e-05,0.0,0 STARLINK-5056,1 53910U 22119AA  24102.97449266  .00006663  00000-0  43673-3 0  9996,2 53910  53.2179 201.8636 0001145 100.7507 259.3614 15.08804625 86221,6917.989,95.44,540.646,539.061,0.0
53910.0,STARLINK-5056,PAYLOAD,2024-04-12 12:06:20,15.08837354,0.0001114,53.2171,199.4825,94.7403,265.3716,2.6174e-05,1.29e-06,0.0,0 STARLINK-5056,1 53910U 22119AA  24103.50440537  .00000129  00000-0  26174-4 0  9997,2 53910  53.2171 199.4825 0001114  94.7403 265.3716 15.08837354 86302,6917.888,95.438,540.524,538.983,0.0
53910.0,STARLINK-5056,PAYLOAD,2024-04-12 13:41:43,15.08840536,0.0001285,53.2183,199.1856,95.4261,264.6878,5.078e-05,5.2e-06,0.0,0 STARLINK-5056,1 53910U 22119AA  24103.57064292  .00000520  00000-0  50780-4 0  9999,2 53910  53.2183 199.1856 0001285  95.4261 264.6878 15.08840536 86739,6917.879,95.438,540.633,538.855,0.0
53910.0,STARLINK-5056,PAYLOAD,2024-04-13 13:32:30,15.08843763,0.0001346,53.2183,194.7231,85.1427,274.9719,8.3632e-05,1.043e-05,0.0,0 STARLINK-5056,1 53910U 22119AA  24104.56424195  .00001043  00000-0  83632-4 0  9994,2 53910  53.2183 194.7231 0001346  85.1427 274.9719 15.08843763 86884,6917.869,95.437,540.665,538.803,0.0
53910.0,STARLINK-5056,PAYLOAD,2024-04-14 13:23:17,15.08834914,0.0001793,53.2187,190.2658,64.8935,295.2243,0.0002986,4.467e-05,0.0,0 STARLINK-5056,1 53910U 22119AA  24105.55784464  .00004467  00000-0  29860-3 0  9997,2 53910  53.2187 190.2658 0001793  64.8935 295.2243 15.08834914 86613,6917.896,95.438,541.001,538.521,0.0
53910.0,STARLINK-5056,PAYLOAD,2024-04-15 14:49:26,15.08855586,0.0001726,53.2185,185.5025,68.0687,292.0489,0.00010416,1.371e-05,0.0,0 STARLINK-5056,1 53910U 22119AA  24106.61767207  .00001371  00000-0  10416-3 0  9999,2 53910  53.2185 185.5025 0001726  68.0687 292.0489 15.08855586 87191,6917.833,95.437,540.892,538.504,0.0
53910.0,STARLINK-5056,PAYLOAD,2024-04-16 05:07:55,15.0884767,0.0001784,53.2178,182.8234,98.3805,261.739,-2.0636e-05,-6.17e-06,0.0,0 STARLINK-5056,1 53910U 22119AA  24107.21383921 -.00000617  00000-0 -20636-4 0  9993,2 53910  53.2178 182.8234 0001784  98.3805 261.7390 15.08847670 86869,6917.857,95.437,540.956,538.488,0.0
53910.0,STARLINK-5056,PAYLOAD,2024-04-16 11:29:27,15.08851216,0.0001707,53.2187,181.6385,95.0982,265.0205,2.9389e-05,1.8e-06,0.0,0 STARLINK-5056,1 53910U 22119AA  24107.47879505  .00000180  00000-0  29389-4 0  9996,2 53910  53.2187 181.6385 0001707  95.0982 265.0205 15.08851216 87323,6917.846,95.437,540.892,538.53,0.0
53910.0,STARLINK-5056,PAYLOAD,2024-04-17 04:58:43,15.0883714,0.0001585,53.2174,178.3652,92.0609,268.0565,-6.7727e-05,-1.366e-05,0.0,0 STARLINK-5056,1 53910U 22119AA  24108.20744897 -.00001366  00000-0 -67727-4 0  9990,2 53910  53.2174 178.3652 0001585  92.0609 268.0565 15.08837140 87014,6917.889,95.438,540.851,538.658,0.0
